CCSDS_OMM_VERS = 2.0
CREATION_DATE  = 
ORIGINATOR     = 

OBJECT_NAME    = STARLINK-36427
OBJECT_ID      = 2026-002AE
CENTER_NAME    = EARTH
REF_FRAME      = TEME
TIME_SYSTEM    = UTC
MEAN_ELEMENT_THEORY = SGP/SGP4

EPOCH          = 2026-01-13T06:00:02.000160
MEAN_MOTION    = 16.00831158
ECCENTRICITY   = .00019611
INCLINATION    = 42.9976
RA_OF_ASC_NODE = 286.3877
ARG_OF_PERICENTER = 275.2477
MEAN_ANOMALY   = 259.8847

EPHEMERIS_TYPE = 0
CLASSIFICATION_TYPE = U
NORAD_CAT_ID   = 67333
ELEMENT_SET_NO = 999
REV_AT_EPOCH   = 256
BSTAR          = -.18809182E-2
MEAN_MOTION_DOT = -.1051866E-1
MEAN_MOTION_DDOT = .362879E-3

CCSDS_OMM_VERS = 2.0
CREATION_DATE  = 
ORIGINATOR     = 

OBJECT_NAME    = 2025-315C
OBJECT_ID      = 2025-315C
CENTER_NAME    = EARTH
REF_FRAME      = TEME
TIME_SYSTEM    = UTC
MEAN_ELEMENT_THEORY = SGP/SGP4

EPOCH          = 2026-01-13T00:48:31.809600
MEAN_MOTION    = 1.00271724
ECCENTRICITY   = .00007079
INCLINATION    = 3.0055
RA_OF_ASC_NODE = 99.2133
ARG_OF_PERICENTER = 333.4422
MEAN_ANOMALY   = 125.0874

EPHEMERIS_TYPE = 0
CLASSIFICATION_TYPE = U
NORAD_CAT_ID   = 67403
ELEMENT_SET_NO = 999
REV_AT_EPOCH   = 13
BSTAR          = 0
MEAN_MOTION_DOT = -.51E-6
MEAN_MOTION_DDOT = 0

